E-ST@R-II               
1 41459U 16025D   22306.53587683  .00027183  00000+0  10775-2 0  9997
2 41459  98.1946 122.3353 0136679 159.5894 201.0867 15.17067262358405
AAUSAT 4                
1 41460U 16025E   22306.49095319  .00041545  00000+0  13653-2 0  9990
2 41460  98.1821 129.9231 0111998 130.7801 253.8758 15.25492281358937
BEESAT-4                
1 41619U 16040W   22305.59251293  .00027276  00000+0  79256-3 0  9995
2 41619  97.2004 352.7705 0007709 356.3769   3.7417 15.35412508341730
RAVAN                   
1 41849U 16067B   22305.82832507  .00007114  00000+0  55081-3 0  9997
2 41849  98.0053  86.9671 0016116 231.9994 127.9775 15.01672130326603
CELTEE 1                
1 41850U 16067C   22305.84900477  .00004152  00000+0  34683-3 0  9997
2 41850  98.0147  81.5223 0008322 230.5587 129.4899 14.99088035326331
OPTICUBE 04             
1 41851U 16067D   22306.16673632  .00002350  00000+0  20322-3 0  9997
2 41851  98.0148  80.7135 0008156 241.1914 118.8488 14.98197322326327
AEROCUBE 8D             
1 41852U 16067E   22306.17861291  .00004536  00000+0  37846-3 0  9996
2 41852  98.0122  80.8576 0009131 234.0530 125.9845 14.99074430326320
AEROCUBE 8C             
1 41853U 16067F   22305.82853974  .00004303  00000+0  35958-3 0  9991
2 41853  98.0124  80.3088 0009571 246.2829 113.7390 14.99049634326261
PROMETHEUS 2-1          
1 41854U 16067G   22306.07523751  .00008098  00000+0  64218-3 0  9993
2 41854  98.0252  81.9546 0015847 250.3128 109.6385 15.00715086326375
PROMETHEUS 2-3          
1 41855U 16067H   22306.33310072  .00008062  00000+0  63979-3 0  9997
2 41855  98.0217  82.2823 0013103 273.8900  86.0825 15.00722781326412
INS-1B                  
1 41954U 17008G   22306.15398820  .00023520  00000+0  68145-3 0  9996
2 41954  97.2406   3.3824 0008356 101.2981 258.9202 15.35527981317844
BGUSAT                  
1 41999U 17008BD  22306.47246462  .00092323  00000+0  15030-2 0  9995
2 41999  97.2650  17.1408 0004502  91.9750 268.2019 15.52321224317956
DIDO-2                  
1 42000U 17008BE  22306.40660385  .00010481  00000+0  35543-3 0  9993
2 42000  97.2405   2.2602 0008557 121.8186 238.3889 15.30679532317158
PEASSS                  
1 42015U 17008BV  22306.12024342  .00021500  00000+0  63172-3 0  9998
2 42015  97.2469   6.6523 0006306 113.9884 246.2020 15.35120166317863
AL-FARABI 1             
1 42016U 17008BW  22306.41272427  .00031716  00000+0  80419-3 0  9993
2 42016  97.2533  10.7858 0005480 110.7507 249.4327 15.39624113318234
NAYIF-1 (EO-88)         
1 42017U 17008BX  22305.76292708  .00029264  00000+0  73803-3 0  9999
2 42017  97.2536  10.1740 0005600 110.5627 249.6220 15.39803995318160
UCLSAT                  
1 42765U 17036A   22306.07865467  .00021163  00000+0  65808-3 0  9999
2 42765  97.1811 344.5986 0008658 178.8582 181.2682 15.33308305298321
LITUANICASAT-2          
1 42768U 17036D   22306.11438108  .00052926  00000+0  11478-2 0  9999
2 42768  97.1885 349.0466 0009512 159.4185 200.7449 15.44186856298428
AALTO-1                 
1 42775U 17036L   22306.09478403  .00010948  00000+0  40700-3 0  9995
2 42775  97.1843 338.7464 0011564 188.7309 171.3732 15.27628968297777
URSA MAIOR              
1 42776U 17036M   22306.08305921  .00012420  00000+0  45069-3 0  9999
2 42776  97.1854 339.6180 0011260 186.9735 173.1350 15.28398535297817
COMPASS 2               
1 42777U 17036N   22306.12294218  .00032805  00000+0  87224-3 0  9999
2 42777  97.1884 347.5612 0009137 164.9501 195.2018 15.38129939298263
DIAMOND RED             
1 42783U 17036U   22306.38634616  .00014344  00000+0  49581-3 0  9996
2 42783  97.1852 342.5245 0009566 188.0462 172.0628 15.29972561298011
PEGASUS                 
1 42784U 17036V   22306.35231130  .00017987  00000+0  58080-3 0  9998
2 42784  97.1844 343.9642 0009236 183.1899 176.9286 15.32129388298101
DIAMOND GREEN           
1 42785U 17036W   22306.05953415  .00015891  00000+0  54821-3 0  9994
2 42785  97.1855 342.2741 0009342 190.6053 169.4993 15.30015458297953
DIAMOND BLUE            
1 42786U 17036X   22305.33935280  .00014017  00000+0  48454-3 0  9999
2 42786  97.1854 341.5694 0009289 193.6452 166.4539 15.29977800297924
NUDTSAT                 
1 42787U 17036Y   22305.94219816  .00040078  00000+0  10098-2 0  9995
2 42787  97.1857 348.9004 0007504 165.7513 194.3948 15.39754527298206
SUCHAI                  
1 42788U 17036Z   22306.42054519  .00025759  00000+0  76408-3 0  9994
2 42788  97.1844 346.0963 0008690 175.9356 184.1960 15.34765725298311
SKCUBE                  
1 42789U 17036AA  22305.39106475  .00019897  00000+0  61487-3 0  9996
2 42789  97.1842 344.3726 0008749 180.9317 179.1911 15.33518218298037
VZLUSAT-1               
1 42790U 17036AB  22305.38280972  .00039827  00000+0  10149-2 0  9995
2 42790  97.1857 348.2788 0007688 168.6389 191.5033 15.39408855298268
ROBUSTA 1B              
1 42792U 17036AD  22305.09420648  .00024888  00000+0  74857-3 0  9999
2 42792  97.1842 344.7714 0008126 180.4256 179.6982 15.34338670298045
CICERO 6                
1 42793U 17036AE  22306.09475164  .00012501  00000+0  43668-3 0  9999
2 42793  97.1830 342.7206 0008210 187.0795 173.0332 15.29671522298094
CORVUS BC2              
1 42846U 17042X   22306.07217190  .00002984  00000+0  28987-3 0  9997
2 42846  97.4045 155.5033 0007658 253.0331 107.0050 14.93284209288812
CORVUS BC1              
1 42847U 17042Y   22306.07671281  .00002394  00000+0  23314-3 0  9997
2 42847  97.4045 155.8355 0007464 252.4396 107.6009 14.93363758288820
MIRATA                  
1 43015U 17073C   22306.43636382  .00010531  00000+0  73568-3 0  9990
2 43015  97.6554 196.6469 0234143  86.7878 276.0096 14.85889481267745
MAKERSAT 0              
1 43016U 17073D   22306.44452752  .00007021  00000+0  50700-3 0  9992
2 43016  97.6567 195.8671 0242889  92.3768 270.5276 14.83608594267632
CORVUS BC3              
1 43118U 18004H   22305.47820232  .00014381  00000+0  50497-3 0  9994
2 43118  97.3495  16.4886 0007658 230.6711 129.3852 15.29481495267143
MICROMAS-2A             
1 43131U 18004W   22306.22821147  .00047935  00000+0  10469-2 0  9994
2 43131  97.3644  26.3699 0005377 208.3618 151.7338 15.44034864267778
SPACEBEE-4              
1 43139U 18004AE  22306.16294076  .00226526  00000+0  21353-2 0  9999
2 43139  97.3713  34.0134 0005328 233.1900 126.8871 15.66339255268197
CICERO 7                
1 43143U 18004AJ  22306.48593652  .00022813  00000+0  60720-3 0  9996
2 43143  97.3635  25.3319 0004780 212.0397 148.0558 15.38203884267756
GOMX-4B                 
1 43196U 18015E   22305.95447282  .00011178  00000+0  39876-3 0  9994
2 43196  97.5520  86.9380 0015527 293.6335  66.3274 15.28945923264152
GOMX-4A                 
1 43197U 18015F   22306.10045788  .00013033  00000+0  43662-3 0  9998
2 43197  97.5515  88.2754 0015262 291.4048 185.1314 15.30954810264265
AEROCUBE 12A            
1 43556U 18046C   22305.39707380  .00042529  00000+0  87521-3 0  9998
2 43556  51.6347 233.7267 0008058 158.4976 201.6351 15.45487883240447
AEROCUBE 12B            
1 43557U 18046D   22306.53039780  .00031201  00000+0  72368-3 0  9996
2 43557  51.6360 235.2032 0007893 159.7956 200.3343 15.42091340240474
SURFSAT                 
1 43614U 18070B   22306.17118964  .00102248  00000+0  85895-3 0  9998
2 43614  93.0072 157.5664 0007350 160.5970 199.5582 15.69557993232542
CP7 (DAVE)              
1 43615U 18070C   22306.09413891  .00081673  00000+0  78478-3 0  9994
2 43615  93.0070 157.1980 0007772 168.1816 191.9637 15.66298971232473
CUBEBEL-1 (BSUSAT-1)    
1 43666U 18083E   22306.51899701  .00015807  00000+0  61822-3 0  9990
2 43666  97.4103 333.7817 0011614 199.1507 302.2644 15.25865510222519
CICERO 10               
1 43690U 18088A   22305.83248895  .00015736  00000+0  58776-3 0  9993
2 43690  85.0384 225.0094 0013557  12.9664 347.1926 15.27164638220709
IRVINE01                
1 43693U 18088D   22306.08826961  .00121485  00000+0  19747-2 0  9993
2 43693  85.0270 216.7719 0005434  11.5086 348.6296 15.52251893221441
PROXIMA I               
1 43694U 18088E   22306.16520721  .00015671  00000+0  55342-3 0  9999
2 43694  85.0315 221.1278 0014503 335.3585  24.6966 15.28992522220987
PROXIMA II              
1 43696U 18088G   22305.77517381  .00015791  00000+0  55856-3 0  9998
2 43696  85.0320 221.4131 0014646 336.9743  23.0845 15.28936540220928
FACSAT-1                
1 43721U 18096C   22306.48582009  .00042771  00000+0  98396-3 0  9998
2 43721  97.3409  26.5892 0011017 272.5651  99.3538 15.42461234219204
CENTAURI-2              
1 43722U 18096D   22306.49017005  .00066993  00000+0  12446-2 0  9992
2 43722  97.3459  29.5559 0010780 267.4426  92.5590 15.48626038219363
INNOSAT-2               
1 43738U 18096V   22306.54046492  .00313821  00000+0  19950-2 0  9999
2 43738  97.3537  39.9445 0011554 253.5396 235.1014 15.75501875220008
SIRION PATHFINDER-2     
1 43759U 18099B   22306.17401644  .00002916  00000+0  25880-3 0  9998
2 43759  97.6048   9.2683 0014394 155.3319 204.8595 14.96853077213649
CORVUS BC4              
1 43767U 18099K   22305.84884869  .00003449  00000+0  30999-3 0  9993
2 43767  97.6003   7.2570 0012045 160.0157 200.1538 14.96264398213510
MOVE-II                 
1 43780U 18099Y   22305.66488932  .00008877  00000+0  73695-3 0  9999
2 43780  97.6103   9.8945 0013600 160.7821 199.3918 14.98928233213601
SPACEBEE-7              
1 43816U 18099BL  22306.13581618  .00006590  00000+0  55290-3 0  9998
2 43816  97.6125  11.0755 0014100 144.7864 215.4293 14.98610396213260
SPACEBEE-5              
1 43817U 18099BM  22305.41403220  .00019790  00000+0  14391-2 0  9993
2 43817  97.6210  14.2684 0005927 147.3774 212.7819 15.03844266213332
SPACEBEE-6              
1 43818U 18099BN  22306.44903317  .00008406  00000+0  67751-3 0  9991
2 43818  97.6136  12.5747 0014426 152.9593 207.2386 15.00074489213513
